ONEWEB-0144             
1 47290U 20100AJ  24188.37892798  .00000439  00000+0  11863-2 0  9997
2 47290  87.8951 132.1907 0001680  77.2777 282.8539 13.12441955171334
ONEWEB-0145             
1 47291U 20100AK  24188.57843161 -.00000196  00000+0 -58138-3 0  9999
2 47291  87.8951 132.1749 0001928  79.3297 280.8049 13.12443104171550
ONEWEB-0146             
1 47292U 20100AL  24188.57518135 -.00000533  00000+0 -15174-2 0  9997
2 47292  87.8953 132.1593 0002500  81.8042 278.3370 13.12442684171464
ONEWEB-0147             
1 47293U 20100AM  24188.54112199  .00000160  00000+0  40930-3 0  9998
2 47293  87.8948 132.1594 0002013  70.4059 289.7287 13.12440346171355
ONEWEB-0115             
1 48042U 21025A   24188.28608153  .00000043  00000+0  83086-4 0  9999
2 48042  87.8924 101.7356 0002118  76.5998 283.5367 13.13469968160277
ONEWEB-0152             
1 48043U 21025B   24188.45114375  .00000043  00000+0  81820-4 0  9991
2 48043  87.8929 101.7012 0002078  76.1303 284.0057 13.13469331160257
ONEWEB-0153             
1 48044U 21025C   24188.50508601 -.00000159  00000+0 -47026-3 0  9996
2 48044  87.8930 101.6786 0001881  77.3642 282.7697 13.13469853160251
ONEWEB-0154             
1 48045U 21025D   24188.50191137 -.00000191  00000+0 -55873-3 0  9994
2 48045  87.8926 101.6900 0001959  75.4099 284.7248 13.13469588160211
